PK;NOMBRE;DESCRIPCION-ENTIDAD;HORARIO;EQUIPAMIENTO;TRANSPORTE;DESCRIPCION;ACCESIBILIDAD;CONTENT-URL;NOMBRE-VIA;CLASE-VIAL;TIPO-NUM;NUM;PLANTA;PUERTA;ESCALERAS;ORIENTACION;LOCALIDAD;PROVINCIA;CODIGO-POSTAL;BARRIO;DISTRITO;COORDENADA-X;COORDENADA-Y;LATITUD;LONGITUD;TELEFONO;FAX;EMAIL;TIPO;
6690;"Escuela de Cerámica de la Moncloa";"";"De lunes a viernes de 9 a 14 horas (atención público)";"Biblioteca - Sala de Exposiciones Arnaldos - Montajes - Encuentros";"Metro: Príncipe Pío  Bus: 74 , 21 , 41 , 46 , 75";" ENSEÑANZAS. ACCESO: Con ESO - BUP o FP2 (Se obtiene un Diploma de Ceramista expedido por el Ayuntamiento) -   CURSOS MONOGRÁFICOS. ACCESO: Prueba de nivel cuando la demanda es superior a las plazas   TALLERES: ACCESO: Prueba de nivel   Más información en:    Escuela de Cerámica de la Moncloa  ";"0";"http://www.madrid.es/vgn-ext-templating/v/index.jsp?vgnextchannel=9e4c43db40317010VgnVCM100000dc0ca8c0RCRD&vgnextoid=009fa4ea6871c010VgnVCM1000000b205a0aRCRD";"FRANCISCO Y JACINTO ALCANTARA";"CALLE";"V";"2";"";"";"";"";"MADRID";"MADRID";"28008";"CASA DE CAMPO";"MONCLOA-ARAVACA";"438672";"4475579";"40.42670719570918";"-3.7242795119747836";"915 478 589 ";"";"escuelaceramica@madrid.es";"/contenido/entidadesYorganismos/CentrosEnseñanzasArtisticas/ConservatoriosEscuelasMusicaDanza"; 
81780;"Escuela Municipal de Arte Dramático";"";" De lunes a jueves de 9,30 a 14,00 y de 15,30 a 18,30 horas  Viernes de 9,30 a 14,00 horas ";"Cursos para alumnos de 6 años en adelante";"Metro: Bilbao , Alonso Martínez , Tribunal Bus: 3 , 21 , 37 , 40 , 147 , 149";"  ENSEÑANZA    Nivel Superior (3 cursos): Interpretación - Voz - Expresión corporal - Análisis de texto teatral - Teatro clásico español - Ortofonía y dicción - Voz y Canto.  Formación teatral básica (junior, senior y adulto): Interpretación - Voz - Expresión corporal.  Grupos para niños (alevín e infantil): Iniciación al teatro - Juego escénico.    REQUISITOS DE EDAD    Nivel Superior y Senior: de 15 años en adelante.  Junior: de 12 a 14 años.  Infantil: de 9 a 11 años.  Alevín: de 6 a 8 años.  ";"0";"http://www.madrid.es/vgn-ext-templating/v/index.jsp?vgnextchannel=9e4c43db40317010VgnVCM100000dc0ca8c0RCRD&vgnextoid=5b184291ae91f010VgnVCM2000000c205a0aRCRD";"MEJIA LEQUERICA";"CALLE";"V";"21";"";"";"";"";"MADRID";"MADRID";"28004";"JUSTICIA";"CENTRO";"440775";"4475710";"40.4280399538175";"-3.699501702258276";"91 594 49 98";"";"artedramatico@madrid.es";"/contenido/entidadesYorganismos/CentrosEnseñanzasArtisticas/ConservatoriosEscuelasMusicaDanza"; 
6031698;"Escuela Municipal de Música  El Capricho (Barajas)";"";" De lunes a viernes de 16,30 a 21,30 horas (tardes) ";"";" BUS: 101 , 105, 151  METRO: El Capricho ";"";"0";"http://www.madrid.es/vgn-ext-templating/v/index.jsp?vgnextchannel=9e4c43db40317010VgnVCM100000dc0ca8c0RCRD&vgnextoid=3e524bc86474f210VgnVCM1000000b205a0aRCRD";"JOAQUIN IBARRA";"CALLE";"NUM";"28";"";"";"";"";"MADRID";"MADRID";"28042";"ALAMEDA DE OSUNA";"BARAJAS";"449724";"4478889";"40.4572685449013";"-3.594259736681548";"917 420 634 
(de 17 a 20 horas)";"";"emcapricho@madrid.es";"/contenido/entidadesYorganismos/CentrosEnseñanzasArtisticas/ConservatoriosEscuelasMusicaDanza"; 
4569173;"Escuela Municipal de Música Almudena Cano (Arganzuela)";"";" De lunes a viernes de 16,30 a 21,30 horas (tardes) ";"";"METRO: Atocha BUS: 19, 27, 34, 45, 47, 55, 247 ";"   Características de la escuela   La capacidad máxima es de 400 plazas.  Cuenta con 10 aulas, de las que 3 se dedican a asignaturas teóricas y 7 a instrumentales.  Tiene, asimismo, un Salón de Actos con capacidad para, aproximadamente, 150  personas.    Asignaturas  Ver en documentación asociada las asignaturas que se imparten.  ";"0";"http://www.madrid.es/vgn-ext-templating/v/index.jsp?vgnextchannel=9e4c43db40317010VgnVCM100000dc0ca8c0RCRD&vgnextoid=0e943e9343652110VgnVCM1000000b205a0aRCRD";"TORTOSA";"PASAJE";"V";"4";"";"";"";"";"MADRID";"MADRID";"28045";"PALOS DE MOGUER";"ARGANZUELA";"441348";"4473231";"40.40574857350412";"-3.6925180494110386";"915 062 722            
(de 17 a 20 horas)";"";"emarganzuela@madrid.es";"/contenido/entidadesYorganismos/CentrosEnseñanzasArtisticas/ConservatoriosEscuelasMusicaDanza"; 
6698;"Escuela Municipal de Música Antonio Machado (San Blas-Canillejas)";"";" De lunes a viernes de 16,30 a 21,30 horas (tardes) ";"";" Bus: 4 , 106, 140   Metro: Alsacia ";"";"0";"http://www.madrid.es/vgn-ext-templating/v/index.jsp?vgnextchannel=9e4c43db40317010VgnVCM100000dc0ca8c0RCRD&vgnextoid=3fefa4ea6871c010VgnVCM1000000b205a0aRCRD";"SAN ROMAN DEL VALLE";"CALLE";"V";"8";"";"";"";"";"MADRID";"MADRID";"28037";"ARCOS";"SAN BLAS-CANILLEJAS";"447365";"4474799";"40.42027705095574";"-3.621741078700336";"917 757 472              
(de 17 a 20 horas)";"";"emamachado@madrid.es";"/contenido/entidadesYorganismos/CentrosEnseñanzasArtisticas/ConservatoriosEscuelasMusicaDanza"; 
125019;"Escuela Municipal de Música Carmelo Alonso Bernaola (Fuencarral-El Pardo)";"";" De lunes a viernes de 16,30 a 21,30 horas (tardes) ";"";" Metro: Begoña  Bus: 66 , 124 ,137  ";"";"0";"http://www.madrid.es/vgn-ext-templating/v/index.jsp?vgnextchannel=9e4c43db40317010VgnVCM100000dc0ca8c0RCRD&vgnextoid=9f368899fc81c010VgnVCM1000000b205a0aRCRD";"SOTO PALACIOS";"AVENIDA";"V";"7";"";"";"";"";"MADRID";"MADRID";"28034";"VALVERDE";"FUENCARRAL-EL PARDO";"442097";"4482432";"40.48876867947374";"-3.6845918447368597";"913 340 931          
(de 17 a 20 horas)";"";"embernaola@madrid.es";"/contenido/entidadesYorganismos/CentrosEnseñanzasArtisticas/ConservatoriosEscuelasMusicaDanza"; 
190712;"Escuela Municipal de Música de Vicálvaro";"";"De lunes a viernes de 16,30 a 21,30 horas (tardes)";"";"Metro: Valdebernardo Bus: 8 , 71 , 130";"";"0";"http://www.madrid.es/vgn-ext-templating/v/index.jsp?vgnextchannel=9e4c43db40317010VgnVCM100000dc0ca8c0RCRD&vgnextoid=fa838300a3a30110VgnVCM1000000b205a0aRCRD";"INDALECIO PRIETO";"BULEVAR";"V";"16";"";"";"";"";"MADRID";"MADRID";"28032";"CASCO H.VICALVARO";"VICALVARO";"447406";"4472778";"40.40207320657617";"-3.621090403479105";"913 713 317          
(de 17 a 20 horas)";"";"emvicalvaro@madrid.es";"/contenido/entidadesYorganismos/CentrosEnseñanzasArtisticas/ConservatoriosEscuelasMusicaDanza"; 
6687;"Escuela Municipal de Música Federico Chueca (Hortaleza)";"";"De lunes a viernes de 16,30 a 21,30 horas (tardes)";"";" Metro: Pinar del Rey Bus: 73, 87 ";"";"0";"http://www.madrid.es/vgn-ext-templating/v/index.jsp?vgnextchannel=9e4c43db40317010VgnVCM100000dc0ca8c0RCRD&vgnextoid=db30a4ea6871c010VgnVCM1000000b205a0aRCRD";"BENITA AVILA";"CALLE";"V";"23";"";"";"";"";"MADRID";"MADRID";"28043";"CANILLAS";"HORTALEZA";"444954";"4479837";"40.46550570624769";"-3.650596897631368";"917 593 235          
(de 17 a 20 horas)";"";"emfchueca@madrid.es";"/contenido/entidadesYorganismos/CentrosEnseñanzasArtisticas/ConservatoriosEscuelasMusicaDanza"; 
4953904;"Escuela Municipal de Música Isaac Albéniz (Carabanchel)";"";" De lunes a viernes de 16,30 a 21,30 horas (tardes) ";"";" Metro: La Peseta Bus: 35, 47 ";"";"0";"http://www.madrid.es/vgn-ext-templating/v/index.jsp?vgnextchannel=9e4c43db40317010VgnVCM100000dc0ca8c0RCRD&vgnextoid=c048bfcfa63ea110VgnVCM2000000c205a0aRCRD";"LONJA DE LA SEDA";"CALLE";"V";"4";"";"";"";"";"MADRID";"MADRID";"28054";"BUENAVISTA";"CARABANCHEL";"435979";"4468864";"40.366012559408354";"-3.7553478337291613";"915 117 273        
(de 17 a 20 horas)";"";"emisaacalbeniz@madrid.es";"/contenido/entidadesYorganismos/CentrosEnseñanzasArtisticas/ConservatoriosEscuelasMusicaDanza"; 
6683;"Escuela Municipal de Música Maestro Barbieri (Usera)";"";"De lunes a viernes de 16,30 a 21,30 horas (tardes)";"";"Bus: 6 , 60 , 78 , 81 , 116 , 121 , 131";"";"0";"http://www.madrid.es/vgn-ext-templating/v/index.jsp?vgnextchannel=9e4c43db40317010VgnVCM100000dc0ca8c0RCRD&vgnextoid=2260a4ea6871c010VgnVCM1000000b205a0aRCRD";"CESTONA";"CALLE";"V";"3";"";"";"";"";"MADRID";"MADRID";"28041";"ORCASITAS";"USERA";"439532";"4469578";"40.372710384742504";"-3.7135708871039514";"913 417 833          
(de 17 a 20 horas)";"";"emmbarbieri@madrid.es";"/contenido/entidadesYorganismos/CentrosEnseñanzasArtisticas/ConservatoriosEscuelasMusicaDanza"; 
141421;"Escuela Municipal de Música Manuel Vázquez Montalbán (Tetuán)";"";"De lunes a viernes de 16,30 a 21,30 horas (tardes).";"";"Metro: Francos Rodríguez Bus: 44 , 64 , 126, 127 , 128 , 132";"";"0";"http://www.madrid.es/vgn-ext-templating/v/index.jsp?vgnextchannel=9e4c43db40317010VgnVCM100000dc0ca8c0RCRD&vgnextoid=ff34ba61e681c010VgnVCM1000000b205a0aRCRD";"FRANCOS RODRIGUEZ";"CALLE";"V";"67";"";"";"";"";"MADRID";"MADRID";"28039";"BELLAS VISTAS";"TETUAN";"439865";"4478987";"40.45749513485957";"-3.710539712535917";"913 118 748           
(de 17 a 20 horas)";"";"emmvmontalban@madrid.es";"/contenido/entidadesYorganismos/CentrosEnseñanzasArtisticas/ConservatoriosEscuelasMusicaDanza"; 
6699;"Escuela Municipal de Música Nicolás Salmerón (Chamartín)";"";"De lunes a viernes de 16,30 a 21,30 horas (tardes)";"";"Metro: Prosperidad Bus: 9 , 73";"";"0";"http://www.madrid.es/vgn-ext-templating/v/index.jsp?vgnextchannel=9e4c43db40317010VgnVCM100000dc0ca8c0RCRD&vgnextoid=7880a4ea6871c010VgnVCM1000000b205a0aRCRD";"MANTUANO";"CALLE";"V";"51";"";"";"";"";"MADRID";"MADRID";"28002";"CIUDAD JARDIN";"CHAMARTIN";"442766";"4477922";"40.44810636195716";"-3.6762309620097398";"915 152 351           
(de 17 a 20 horas)";"";"emnsalmeron@madrid.es";"/contenido/entidadesYorganismos/CentrosEnseñanzasArtisticas/ConservatoriosEscuelasMusicaDanza"; 
80435;"Escuela Municipal de Música Villa de Vallecas";"";"De lunes a viernes de 16,30 a 21,30 horas (tardes)";"";"Metro: Villa de Vallecas Bus: 54 , 58 , 63, 103 , 142";"";"0";"http://www.madrid.es/vgn-ext-templating/v/index.jsp?vgnextchannel=9e4c43db40317010VgnVCM100000dc0ca8c0RCRD&vgnextoid=00ee8ed67151c010VgnVCM2000000c205a0aRCRD";"AGUSTIN GARCIA MALLA";"CALLE";"V";"4";"";"";"";"";"MADRID";"MADRID";"28031";"SANTA EUGENIA";"VILLA DE VALLECAS";"447792";"4470545";"40.38198119326615";"-3.616358398702118";"913 328 731             
(de 17 a 20 horas)";"";"emvivallecas@madrid.es";"/contenido/entidadesYorganismos/CentrosEnseñanzasArtisticas/ConservatoriosEscuelasMusicaDanza"; 
4953973;"Escuela Municipal de Música y Danza Plácido Domingo (Retiro)";"";" De lunes a viernes de 16,30 a 21,30 horas (tardes) ";"";" Metro: Pacífico Bus: 24, 37, 54, 57, 141 ";"";"0";"http://www.madrid.es/vgn-ext-templating/v/index.jsp?vgnextchannel=9e4c43db40317010VgnVCM100000dc0ca8c0RCRD&vgnextoid=c833bfcfa63ea110VgnVCM2000000c205a0aRCRD";"TELLEZ";"CALLE";"V";"31";"";"";"";"";"MADRID";"MADRID";"28007";"PACIFICO";"RETIRO";"442527";"4472728";"40.401299659267984";"-3.678578804960757";"914 338 558      
(de 17 a 20 horas)";"";"emplacidodomingo@madrid.es";"/contenido/entidadesYorganismos/CentrosEnseñanzasArtisticas/ConservatoriosEscuelasMusicaDanza"; 
6685;"Escuela Municipal de Música Ágata (Villaverde)";"";"De lunes a viernes de 16,30 a 21,30 horas (tardes)";"";"Bus: 86 , 22 , 79 , 130 , 131";"";"0";"http://www.madrid.es/vgn-ext-templating/v/index.jsp?vgnextchannel=9e4c43db40317010VgnVCM100000dc0ca8c0RCRD&vgnextoid=e8cfa4ea6871c010VgnVCM1000000b205a0aRCRD";"DOCTOR MARTIN AREVALO";"CALLE";"V";"2";"";"";"";"";"MADRID";"MADRID";"28021";"SAN ANDRES";"VILLAVERDE";"439937";"4466650";"40.34636268334182";"-3.708524395897377";"917 981 051           
(de 17 a 20 horas)";"";"emagata@madrid.es";"/contenido/entidadesYorganismos/CentrosEnseñanzasArtisticas/ConservatoriosEscuelasMusicaDanza"; 

