PK;NOMBRE;DESCRIPCION-ENTIDAD;HORARIO;EQUIPAMIENTO;TRANSPORTE;DESCRIPCION;ACCESIBILIDAD;CONTENT-URL;NOMBRE-VIA;CLASE-VIAL;TIPO-NUM;NUM;PLANTA;PUERTA;ESCALERAS;ORIENTACION;LOCALIDAD;PROVINCIA;CODIGO-POSTAL;BARRIO;DISTRITO;COORDENADA-X;COORDENADA-Y;LATITUD;LONGITUD;TELEFONO;FAX;EMAIL;TIPO;
6831483;"Bululú 2120";"";"";"";" Metro: Palos de la Frontera (línea 3)  Bus: 6, 8, 19, 45, 47, 55, 59, 85, 86, 247  Cercanías: Delicias y Atocha  ";" Venta anticipada:  http://www.bululu2120.com/  - http:// http://www.ticketea.es/  - 902 488 488 -  http://www.entradas.com/  y cajeros de Bankia   Precios especiales:  http://www.atrapalo.com/   ";"0";"http://www.madrid.es/vgn-ext-templating/v/index.jsp?vgnextchannel=9e4c43db40317010VgnVCM100000dc0ca8c0RCRD&vgnextoid=11fee3831910d310VgnVCM1000000b205a0aRCRD";"CANARIAS";"CALLE";"V";"16";"";"";"";"";"MADRID";"MADRID";"28045";"PALOS DE MOGUER";"ARGANZUELA";"441005";"4472813";"40.401958738062355";"-3.6965212526388838";"913 600 193 (Información y reservas) ";"";"";"/contenido/entidadesYorganismos/Teatros"; 
124469;"Centro de Enseñanza Réplika Teatro. Academia  del Actor";"";"";"Cursos de interpretación y canto - Talleres de teatro para niños";" Metro: Guzmán el Bueno  (Líneas 6, 7)  Bus: 2, 44, 45, C ";"";"0";"http://www.madrid.es/vgn-ext-templating/v/index.jsp?vgnextchannel=9e4c43db40317010VgnVCM100000dc0ca8c0RCRD&vgnextoid=4d86051c8d91f010VgnVCM1000000b205a0aRCRD";"PEDRO JUSTO DORADO DELLMANS";"CALLE";"V";"8";"";"";"";"";"MADRID";"MADRID";"28040";"CIUDAD UNIVERSITARIA";"MONCLOA-ARAVACA";"439716";"4478011";"40.448692123387005";"-3.7122040788250885";"915 350 570";"";"teatro@replikateatro.com";"/contenido/entidadesYorganismos/Teatros"; 
2201;"Centro de Nuevos Creadores (Sala Mirador)";"";"";"";" Metro: Lavapiés (línea 3)  Bus: 27, 34, 36, 41,  C   ";"";"1";"http://www.madrid.es/vgn-ext-templating/v/index.jsp?vgnextchannel=9e4c43db40317010VgnVCM100000dc0ca8c0RCRD&vgnextoid=cc0055004e91f010VgnVCM2000000c205a0aRCRD";"DOCTOR FOURQUET";"CALLE";"V";"31";"";"";"";"";"MADRID";"MADRID";"28012";"EMBAJADORES";"CENTRO";"440805";"4473380";"40.40704318561602";"-3.698954288323779";"915 395 767";"";"";"/contenido/entidadesYorganismos/Teatros"; 
7093521;"Escuela y Sala de teatro. La Usina";"";"";"";" Metro: Palos de la Frontera (Línea 3) ";"";"0";"http://www.madrid.es/vgn-ext-templating/v/index.jsp?vgnextchannel=9e4c43db40317010VgnVCM100000dc0ca8c0RCRD&vgnextoid=2f408e01a3201410VgnVCM2000000c205a0aRCRD";"PALOS DE LA FRONTERA";"CALLE";"V";"4";"";"";"";"";"MADRID";"MADRID";"28012";"PALOS DE MOGUER";"ARGANZUELA";"440699";"4472889";"40.40262160672369";"-3.700134139930537";"913 896 276";"";"";"/contenido/entidadesYorganismos/Teatros"; 
1915;"Fernán Gómez. Centro Cultural de la Villa";"";"  Atención general:  de 9 a 15 y de 16 a 21 horas.   Oficinas:  de lunes a viernes de 9:30 a 14:30 y de 17 a 19 horas.   Venta anticipada de entradas en taquillas:     De martes a domingo de 11 a 13:30 y de 17 a 19 horas. Lunes cerrado  Taquilla julio de 2013: de 11:30 a 13:30 horas    Exposiciones:  varia según la exposición, consultar en la  página web del Centro  ";"  Sala Guirau (aforo 689 personas)  Sala Dos (aforo desde 94 hasta 150 personas, depende de la disposición de la obra que represente)  Sala de exposiciones (200  m2 )  Espacios exteriores (21.402  m2 )  No hay cafetería   Venta de catálogos de exposiciones y de libros editados por el Teatro  En todas las salas y en las taquillas del teatro se dispone del sistema de Bucle Inductivo de audio, para que las personas con problemas de audición puedan comprar sus entradas y disfrutar de los espectáculos en programación.  Las personas con movilidad reducida, deben comunicarlo antes de adquirir sus localidades. ";" Metro: Colón (línea 4), Serrano (línea 4)  Bus: 1 , 5 , 9 , 14 , 19 , 21 , 27 , 45 ,  51 , 53 ,  74 , 150  Renfe: Recoletos ";"  Venta anticipada de entradas:  se pueden adquirir telefónicamente por Tel - entrada (Telentrada): 902 10 12 12 (desde España) / 00 34 917 748 701 (desde el extranjero). ";"1";"http://www.madrid.es/vgn-ext-templating/v/index.jsp?vgnextchannel=9e4c43db40317010VgnVCM100000dc0ca8c0RCRD&vgnextoid=ba663d0b5e71c010VgnVCM1000000b205a0aRCRD";"COLON";"PLAZA";"V";"4";"";"";"";"";"MADRID";"MADRID";"28001";"RECOLETOS";"SALAMANCA";"441586";"4475360";"40.42494443492478";"-3.689909248384061";"914 362 540 (Información general) /                       
914 362 540 - Ext. 208 (precios grupos y otros descuentos)/                      
914 362 540 - Ext. 205 (venta de catálogos y libros) /                                     
914 362 540 - Ext. 240 (Amigos del Fernán Gómez)";"914 358 376";"info@teatrofernangomez.com / grupos@teatrofernangomez.com / amigos@teatrofernangomez.com";"/contenido/entidadesYorganismos/Teatros"; 
6831564;"Garaje Lumiére";"Espacio interdisciplinar dedicado a las Artes";"";"";" Metro: Delicias (Línea 3)  Bus: 55, 6, 19, 247, 45, 47, 59, 85, 86  ";"";"0";"http://www.madrid.es/vgn-ext-templating/v/index.jsp?vgnextchannel=9e4c43db40317010VgnVCM100000dc0ca8c0RCRD&vgnextoid=fac64179e910d310VgnVCM1000000b205a0aRCRD";"CIUDAD REAL";"CALLE";"V";"12";"";"";"";"";"MADRID";"MADRID";"28045";"DELICIAS";"ARGANZUELA";"441134";"4472598";"40.400031054794844";"-3.6949812434375655";"911 192 905 (Información y reservas) ";"";"info@garajelumiere.com";"/contenido/entidadesYorganismos/Teatros"; 
99245;"Karpas Teatro";"Pequeña sala que ofrece producciones propias de compañias invitadas y colabora y participa en certámenes y festivales. Nace como teatro de cámara independiente en los años 70.";"";"";" Metro: Anton Martín (Línea 1)  Bus: 6, 26, 32 ";"";"0";"http://www.madrid.es/vgn-ext-templating/v/index.jsp?vgnextchannel=9e4c43db40317010VgnVCM100000dc0ca8c0RCRD&vgnextoid=7a8c8c7c0f91f010VgnVCM1000000b205a0aRCRD";"SANTA ISABEL";"CALLE";"V";"19";"";"";"";"";"MADRID";"MADRID";"28012";"EMBAJADORES";"CENTRO";"440912";"4473757";"40.41045615490087";"-3.6977049393895824";"915 396 236";"";"karpas@karpasteatro.com";"/contenido/entidadesYorganismos/Teatros"; 
6831665;"La Casa de la Portera";"Un nuevo concepto de espacio escénico surgido a partir de la transformación artística de una vivienda en el centro de Madrid en el que se experimentan nuevos formatos y maneras de entender la creación artística en general y el teatro en particular.";"";"";" Metro: La Latina (Línea 5)  Bus: 17, 18, 23, 35  ";"";"0";"http://www.madrid.es/vgn-ext-templating/v/index.jsp?vgnextchannel=9e4c43db40317010VgnVCM100000dc0ca8c0RCRD&vgnextoid=b0c8265e9c10d310VgnVCM1000000b205a0aRCRD";"ABADES";"CALLE";"V";"24";"";"";"";"";"MADRID";"MADRID";"28012";"EMBAJADORES";"CENTRO";"440207";"4473690";"40.409802150804666";"-3.7060071350911494";"649 397 571 (Información y reservas) ";"";"";"/contenido/entidadesYorganismos/Teatros"; 
6599384;"Microteatro Por Dinero";"Espacio multifuncional en el que se representan microobras de entre diez y quince minutos sobre un mismo tema, en espacios pequeños para menos de quince espectadores por pase y seis sesiones al día.";"";"";" Metro: Callao (Línea 5)  Bus: 1, 2, 3, 44, 46, 74, 75, 133, 147, 148 ";"";"0";"http://www.madrid.es/vgn-ext-templating/v/index.jsp?vgnextchannel=9e4c43db40317010VgnVCM100000dc0ca8c0RCRD&vgnextoid=5546a391f9a2a310VgnVCM1000000b205a0aRCRD";"LORETO Y CHICOTE";"CALLE";"V";"9";"";"";"";"";"MADRID";"MADRID";"28004";"UNIVERSIDAD";"CENTRO";"440382";"4474990";"40.42152574011699";"-3.7040668231939438";"911 397 882";"";"gerenteteatro@teatropordinero.com";"/contenido/entidadesYorganismos/Teatros"; 
6963121;"Naves del Español";"Espacio escénico ubicado en el  Matadero Madrid,  gestionado por el Teatro Español y concebido por el creador de espacios escénicos Jean Guy Lecat. Las naves forman un conjunto dotado de gran flexibilidad, que permite el funcionamiento autónomo de tres espacios interconectados.";"   Venta de localidades para el mismo día:  de martes a domingo de 11:30 a 13:30 horas y de 17 hasta el comienzo de la función.   Venta anticipada: de martes a sábado   de 11:30 a 13:30 horas y de 17 a 19 horas. Domingos de 11:30 a 13:30 horas y de 18:30 a 20 horas.  Lunes, cerrado.  ";"  Servicio de bar abierto media hora antes del inicio de la función.  Salas   Sala 1  Sala 2  Café Teatro     ";" Metro :  Legazpi (líneas 6, 3)  Bus: 6 , 8 , 18 , 19 , 45 , 78 , 148  Renfe: Embajadores ";"";"1";"http://www.madrid.es/vgn-ext-templating/v/index.jsp?vgnextchannel=9e4c43db40317010VgnVCM100000dc0ca8c0RCRD&vgnextoid=4582ee06ea5ee310VgnVCM2000000c205a0aRCRD";"CHOPERA";"PASEO";"V";"14";"";"";"";"";"MADRID";"MADRID";"28045";"CHOPERA";"ARGANZUELA";"440934";"4471754";"40.39241367848808";"-3.697259467865366";"914 730 957 (taquilla)                   
";"";"";"/contenido/entidadesYorganismos/Teatros"; 
109277;"Nuevo Teatro Alcalá";"";" Sábados a las 17 horas. Cerrado lunes ";"";" Metro: Príncipe de Vergara (Líneas 2, 9), Goya (Líneas 2, 4)  Bus: 2, 15, 28, 29, 30, 43, 63, 146, C1 ";"  Venta anticipada en:    Taquilla.  Servicio de venta de localidades El Corte Inglés  Teléfonos: 902 488 488 / 902 400 222  Servicio de venta de entradas  www.topticketline.es   ";"1";"http://www.madrid.es/vgn-ext-templating/v/index.jsp?vgnextchannel=9e4c43db40317010VgnVCM100000dc0ca8c0RCRD&vgnextoid=b18d8c7c0f91f010VgnVCM1000000b205a0aRCRD";"JORGE JUAN";"CALLE";"V";"62";"";"";"";"ESQUINA ALCALÁ";"MADRID";"MADRID";"28009";"GOYA";"SALAMANCA";"442573";"4475181";"40.42340075550414";"-3.678258596986864";"914 264 779 (Taquillas)";"";"";"/contenido/entidadesYorganismos/Teatros"; 
7093690;"Sala Azarte";"";"";"";"Metro: Chueca (Línea 5)";"";"0";"http://www.madrid.es/vgn-ext-templating/v/index.jsp?vgnextchannel=9e4c43db40317010VgnVCM100000dc0ca8c0RCRD&vgnextoid=e2708ff0d6201410VgnVCM2000000c205a0aRCRD";"SAN MARCOS";"CALLE";"V";"19";"";"";"";"";"MADRID";"MADRID";"28004";"JUSTICIA";"CENTRO";"440866";"4474973";"40.42140719770071";"-3.698360306512048";"915 280 435 (reservas de localidades)";"";"info@azarte.com";"/contenido/entidadesYorganismos/Teatros"; 
7093712;"Sala Clan";"";"";"Restaurante, bar de copas";" Metro: Puerta de Toledo (Línea 5), Embajadores (Línea 3)  Bus: 41, 60, 148, C1, C2 ";"";"0";"http://www.madrid.es/vgn-ext-templating/v/index.jsp?vgnextchannel=9e4c43db40317010VgnVCM100000dc0ca8c0RCRD&vgnextoid=ec938ff0d6201410VgnVCM2000000c205a0aRCRD";"TOLEDO";"RONDA";"V";"20";"";"";"";"";"MADRID";"MADRID";"28005";"ACACIAS";"ARGANZUELA";"440142";"4473208";"40.405455383460954";"-3.706727738985041";"915 288 401";"";"salaclan@hotmail.com";"/contenido/entidadesYorganismos/Teatros"; 
143436;"Sala de teatro Las Tablas";" Espacio escénico: flamenco, jazz, blues, teatro y actuaciones para niños... ";"";"";" Metro: Plaza de España (Líneas 2, 3, 10)  Bus: 25, 39, 46, 75, C2, 138 ";"";"0";"http://www.madrid.es/vgn-ext-templating/v/index.jsp?vgnextchannel=9e4c43db40317010VgnVCM100000dc0ca8c0RCRD&vgnextoid=cfb3c8a3d881c010VgnVCM1000000b205a0aRCRD";"ESPA&Ntilde;A";"PLAZA";"V";"9";"";"";"";"";"MADRID";"MADRID";"28008";"ARGUELLES";"MONCLOA-ARAVACA";"439567";"4475047";"40.42198032023045";"-3.713678674361515";"915 420 520";"";"info@lastablasmadrid.com";"/contenido/entidadesYorganismos/Teatros"; 
1983;"Sala el Montacargas";"Sala de teatro alternativo";"";"";" Metro: Puerta del Ángel (Línea 6)  Bus: 25, 31, 33, 36, 39, 65, 138 ";"  Venta de entradas:    En taquilla, una hora antes de la función. Información y resevas en 915 261 173  Por internet en  www.atraplo.com   ";"0";"http://www.madrid.es/vgn-ext-templating/v/index.jsp?vgnextchannel=9e4c43db40317010VgnVCM100000dc0ca8c0RCRD&vgnextoid=8a2a8c7c0f91f010VgnVCM1000000b205a0aRCRD";"ANTILLON";"CALLE";"V";"19";"";"";"";"";"MADRID";"MADRID";"28011";"PUERTA DEL ANGEL";"LATINA";"438350";"4473926";"40.411792435880905";"-3.7279146961691962";"915 261 173";"";"elmontacargas@yahoo.es";"/contenido/entidadesYorganismos/Teatros"; 
7093511;"Sala La Escalera de Jacob";" Situado en Lavapiés, es un espacio con vocación intercultural en el que tienen cabida todo tipo de expresiones artísticas concebidas para un público exigente y alejadas de los circuitos convencionales. Teatro, cine, conciertos, exposiciones, etc. ";"";"Bar ";" Metro: Tirso de Molina (Línea 1), Antón Martín (Línea 1), Lavapiés (Línea 1) ";" Venta de entradas:   Taquillas  Internet:  www.atrapalo.com   ";"0";"http://www.madrid.es/vgn-ext-templating/v/index.jsp?vgnextchannel=9e4c43db40317010VgnVCM100000dc0ca8c0RCRD&vgnextoid=3e4c8e01a3201410VgnVCM2000000c205a0aRCRD";"LAVAPIES";"CALLE";"V";"11";"";"";"";"";"MADRID";"MADRID";"28012";"EMBAJADORES";"CENTRO";"440479";"4473845";"40.41121799500783";"-3.7028161421960313";"649 232 254";"";"info@laescaleradejacob.es";"/contenido/entidadesYorganismos/Teatros"; 
7246631;"Sala La Pensión de las Pulgas";"";"";"";" Metro: Antón Martín (línea 1)  Bus: 6, 26, 32 ";"";"0";"http://www.madrid.es/vgn-ext-templating/v/index.jsp?vgnextchannel=9e4c43db40317010VgnVCM100000dc0ca8c0RCRD&vgnextoid=d448051dbc673410VgnVCM2000000c205a0aRCRD";"HUERTAS";"CALLE";"V";"48";"";"";"";"";"MADRID";"MADRID";"28014";"CORTES";"CENTRO";"440961";"4474065";"40.413234253652156";"-3.6971561016982775";"638 752 812";"";"";"/contenido/entidadesYorganismos/Teatros"; 
147666;"Sala La Puerta Estrecha";"";"";"";" Metro: Lavapiés (Línea 3), Embajadores (Líneas 3, 5) ";"";"0";"http://www.madrid.es/vgn-ext-templating/v/index.jsp?vgnextchannel=9e4c43db40317010VgnVCM100000dc0ca8c0RCRD&vgnextoid=c6af8c89dd91f010VgnVCM2000000c205a0aRCRD";"AMPARO";"CALLE";"V";"94";"";"";"";"";"MADRID";"MADRID";"28012";"EMBAJADORES";"CENTRO";"440668";"4473302";"40.406339903345966";"-3.700538007164605";"914 672 224";"";"";"/contenido/entidadesYorganismos/Teatros"; 
7246699;"Sala Nave 73";"";"";"";" Metro: Embajadores (línea 3), Palos de la Frontera (línea 3)  Bus: 8, 19, 45, 47, 60, 78, 86, 148 ";"";"0";"http://www.madrid.es/vgn-ext-templating/v/index.jsp?vgnextchannel=9e4c43db40317010VgnVCM100000dc0ca8c0RCRD&vgnextoid=5d5b051dbc673410VgnVCM2000000c205a0aRCRD";"PALOS DE LA FRONTERA";"CALLE";"V";"5";"";"";"";"";"MADRID";"MADRID";"28012";"PALOS DE MOGUER";"ARGANZUELA";"440821";"4472948";"40.40316180456706";"-3.6987020172137433";"917 049 583";"";"";"/contenido/entidadesYorganismos/Teatros"; 
161000;"Sala Tarambana";"La compañía Tarambana ofrece en su sala todo tipo de espectáculos y producciones para todo tipo de público, con música, danza o teatro infantil";"";"";" Metro: Carabanchel (línea 5)  Bus: 17, 34, 35, L5 ";" Venta de entradas:   Taquilla: una hora antes de la función  En su página web:  http://www.salatarambana.net   Por teléfono: 914 618 334  ";"0";"http://www.madrid.es/vgn-ext-templating/v/index.jsp?vgnextchannel=9e4c43db40317010VgnVCM100000dc0ca8c0RCRD&vgnextoid=53cf8c89dd91f010VgnVCM2000000c205a0aRCRD";"DOLORES ARMENGOT";"CALLE";"V";"31";"";"";"";"";"MADRID";"MADRID";"28025";"VISTA ALEGRE";"CARABANCHEL";"437027";"4471052";"40.38580294370462";"-3.7432335990226853";"914 618 334";"";"info@tarambana.net";"/contenido/entidadesYorganismos/Teatros"; 
2203;"Sala Triángulo";"Espacio escénico para la comunicación, creación, formación y difusión de la cultura, el arte y el ocio alternativos, actual (en tiempo y acción) y abierto. ";"Lunes cerrado";"";" Metro: Lavapiés (Línea 3) , Antón Martín (Línea 1)  Bus: 10, 26, 27, 36, 37, 57 y 119 ";"  Venta de entradas:    Taquilla: media hora antes de cada función  Por teléfono: 915 306 891 / 902 488 488  Internet:  www.entradas.com   ";"0";"http://www.madrid.es/vgn-ext-templating/v/index.jsp?vgnextchannel=9e4c43db40317010VgnVCM100000dc0ca8c0RCRD&vgnextoid=06b208231f91f010VgnVCM2000000c205a0aRCRD";"ZURITA";"CALLE";"V";"20";"";"";"";"";"MADRID";"MADRID";"28012";"EMBAJADORES";"CENTRO";"440791";"4473671";"40.40967281072633";"-3.699122921978145";"910 299 332 / 672 287 821 / 668 471 025";"";"reservas@teatrotriangulo.com";"/contenido/entidadesYorganismos/Teatros"; 
6832040;"Sala Tú";"";"";"";" Metro: Tribunal (línea 1, 10), Bilbao (línea 1, 4), Noviciado (línea 2)  Bus: 3, 21, 40, 147, 149 ";"";"0";"http://www.madrid.es/vgn-ext-templating/v/index.jsp?vgnextchannel=9e4c43db40317010VgnVCM100000dc0ca8c0RCRD&vgnextoid=5425b88ddf10d310VgnVCM1000000b205a0aRCRD";"VELARDE";"CALLE";"V";"15";"";"";"";"";"MADRID";"MADRID";"28004";"UNIVERSIDAD";"CENTRO";"440446";"4475575";"40.42680028110073";"-3.703367344935001";"910 176 802 ";"";"";"/contenido/entidadesYorganismos/Teatros"; 
2199;"Teatro Alfil";"Es una sala con más de medio siglo de historia. Actualmente se encuentra a mitad de camino entre lo comercial y lo alternativo. El escenario es de reducidas dimensiones.";" Cerrado los lunes ";"";" Metro: Noviciado (Líneas 2, 3, 10)  Bus: 1, 2, 44, 46, 74, 75, 133, 147, 148 ";" Venta de entradas:   Taquilla: a partir de una hora antes de la primera función  Por teléfono: 902 488 488  Internet:  www.entradas.com   ";"1";"http://www.madrid.es/vgn-ext-templating/v/index.jsp?vgnextchannel=9e4c43db40317010VgnVCM100000dc0ca8c0RCRD&vgnextoid=a83b8c7c0f91f010VgnVCM1000000b205a0aRCRD";"PEZ";"CALLE";"V";"10";"";"";"";"";"MADRID";"MADRID";"28004";"UNIVERSIDAD";"CENTRO";"440349";"4475170";"40.4231448936827";"-3.7044727114319844";"915 215 827 ";"";"info@teatroalfil.com";"/contenido/entidadesYorganismos/Teatros"; 
17306;"Teatro Amaya - Feima";"Alberga además de grandes producciones teatrales, exposiciones de pintura, fotografía, etc. Busca de esta manera, abrir una puerta más a la cultura de la ciudad.";" Cerrado los lunes ";"";" Metro: Iglesia (Línea 1)  Bus: 16, 53, 61 ";" Venta de entradas:   Taquilla  Por teléfono: 902 400 222  Internet:  www.elcorteingles.es  y  www.atrapalo.com   ";"1";"http://www.madrid.es/vgn-ext-templating/v/index.jsp?vgnextchannel=9e4c43db40317010VgnVCM100000dc0ca8c0RCRD&vgnextoid=6b4b8c7c0f91f010VgnVCM1000000b205a0aRCRD";"GENERAL MARTINEZ CAMPOS";"PASEO";"V";"9";"";"";"";"";"MADRID";"MADRID";"28010";"ALMAGRO";"CHAMBERI";"440977";"4476496";"40.43513498732234";"-3.697193610846834";"915 934 005 (Taquillas)";"";"";"/contenido/entidadesYorganismos/Teatros"; 
17326;"Teatro Arteria Coliseum";"Situado en el Gran Vía madrileña, el Teatro Coliseum tiene más de setenta años de historia";"  Taquilla:  de martes a sábados de 12 a 20 horas. Domingos de 12 a 18 horas.   Cerrado: lunes ";"";" Metro: Plaza de España (líneas 3, 2 y 10)  Bus: 1, 2, 3, 25, 33, 39, 40, 41, 44, 46, 74, 75, 133, 138, 146, 147, 148, 149, 202 ";" Venta de entradas:   Telefónica: 902 888 788  Internet:  www.entradas.com   ";"1";"http://www.madrid.es/vgn-ext-templating/v/index.jsp?vgnextchannel=9e4c43db40317010VgnVCM100000dc0ca8c0RCRD&vgnextoid=e9ab8c7c0f91f010VgnVCM1000000b205a0aRCRD";"GRAN VIA";"CALLE";"V";"78";"";"";"";"";"MADRID";"MADRID";"28013";"UNIVERSIDAD";"CENTRO";"439850";"4475188";"40.423271055213334";"-3.7103562860569252";"915 476 612";"";"";"/contenido/entidadesYorganismos/Teatros"; 
2178;"Teatro Bellas Artes";"Presenta una completa programación que combina espectáculos de empresas privadas con teatro público, textos clásicos con contemporáneos, juventud frente a veteranía, tanto de actrices, actores, directores de escena, etc.";"Cerrado los lunes";"";" Metro: Banco de España (Línea 2), Sevilla (Línea 2)  Bus: 1, 2, 3, 5, 9, 10, 14, 15, 20, 27, 34, 37, 45, 46, 51, 52, 53, 74, 146, 202 ";"  Venta de entradas:    Taquilla: de 11:30 a 13:30 horas y desde las 17 horas  Por teléfono: 902 101 212  Internet:  www.telentrada.com   ";"0";"http://www.madrid.es/vgn-ext-templating/v/index.jsp?vgnextchannel=9e4c43db40317010VgnVCM100000dc0ca8c0RCRD&vgnextoid=e07b8c7c0f91f010VgnVCM1000000b205a0aRCRD";"MARQUES DE CASA RIERA";"CALLE";"V";"2";"";"";"";"";"MADRID";"MADRID";"28014";"CORTES";"CENTRO";"441028";"4474630";"40.41832880748667";"-3.6964189422517295";"915 324 437 / 915 324 438";"";"";"/contenido/entidadesYorganismos/Teatros"; 
2179;"Teatro Caser Calderón";"El histórico Teatro calderón se ha asociado a una firma comercial. Acoge grandes musicales y mantiene su programación infantil habitual. En 1917 se inauguró como Teatro Odeón, en 1918 pasa a llamarse Teatro del Centro y años más tarde abre sus puertas tal y como lo conocemos actualmente: Teatro Calderón.";"";"";" Metro: Sol (líneas 1, 2, 3), Tirso de Molina (línea 1)  Bus: 6, 26, 32 , 57, 65 ";"  Venta de entradas:    El Corte Inglés  Ticktackticket  Establecimietnos Carrefour  Taquilla del teatro.  ";"0";"http://www.madrid.es/vgn-ext-templating/v/index.jsp?vgnextchannel=9e4c43db40317010VgnVCM100000dc0ca8c0RCRD&vgnextoid=e38b8c7c0f91f010VgnVCM1000000b205a0aRCRD";"ATOCHA";"CALLE";"V";"18";"";"";"";"";"MADRID";"MADRID";"28012";"EMBAJADORES";"CENTRO";"440434";"4474150";"40.41396235599269";"-3.703375086527539";"914 203 797";"";"";"/contenido/entidadesYorganismos/Teatros"; 
184955;"Teatro Circo Price";" Toma su nombre del que existió, durante casi un siglo, en el Paseo de Recoletos. A comienzos del 2000, el ayuntamiento recuperó el antiguo edificio industrial de una fabrica de galletas, de estilo neomudejar, para ubicar el nuevo Teatro Circo Price que desde 2007 ofrece una variada programación de circo y teatro. ";"  Taquillas:    De octubre a junio: de martes a viernes de 16 a 21 h, y desde dos horas antes de cada espectáculo. En funciones matinales, desde una hora antes.  Julio: de martes a viernes de 17:30 a 21:30 horas; sábados, domingos y lunes, desde dos horas antes hasta inicio del concierto.   Agosto: cerrado.  Septiembre: de martes a viernes de 17 a 21 horas, y desde dos horas antes de cada espectáculo. En funciones matinales, desde una hora antes.  ";"  Aparcamiento propio y vigilado, entrada por la  Juan Sebastián Elcano, 25, de uso exclusivo para los espectadores y con horario limitado sujeto al espectáculo. Precio único de tique de aparcamiento.  Cafetería  Tienda  Guardarropa  ";" Metro: Embajadores (línea 3) , Lavapiés (línea 3), Atocha (línea 1)  Bus: C, 27, 34, 36, 41, 119  Renfe: Embajadores ";" El precio y los horarios de funciones varía de un espectáculo a otro, consultar en la  página web.   Descuento 20 % (no aplicables a conciertos ni talleres, ni acumulables).  Gratis para menores de 4 años, siempre que no ocupen asiento.   Carné Joven  Menores de 14 años  Mayores de 65 años  Personas en sillas de ruedas    Venta de entradas    Web:  http://www.entradas.com/   Teléfono: 902 876 870  Taquilla Price: Ronda de Atocha, 35, Teléfono de taquilla: 915 288 122, de martes a viernes de 16 a 21 horas o desde dos horas antes del comienzo del espectáculo. Fines de semana y festivos abierto desde dos horas antes del comienzo del espectáculo hasta el comienzo de la última función. Funciones matinales: desde una hora antes.   Red de cajeros de Bankia    Reservas de entradas para grupos    Correo electrónico:  audiencias@teatrocircoprice.es   Teléfono 915 391 954    Actividades escolares:   actividades@teatrocircoprice.es    Otras páginas     www.twiter.com/circoprice    www.facebook.com/circoprice   ";"0";"http://www.madrid.es/vgn-ext-templating/v/index.jsp?vgnextchannel=9e4c43db40317010VgnVCM100000dc0ca8c0RCRD&vgnextoid=432257258ae5d010VgnVCM1000000b205a0aRCRD";"ATOCHA";"RONDA";"V";"35";"";"";"";"";"MADRID";"MADRID";"28012";"PALOS DE MOGUER";"ARGANZUELA";"440832";"4473259";"40.40596423138839";"-3.698601359753866";"915 279 865 ";"";"";"/contenido/entidadesYorganismos/Teatros"; 
2177;"Teatro Cofidis Alcázar";"Fue construido en 1921. En sus comienzos era conocido como Palacio de Recreos. Tiene una espectacular fachada, restaurada en el 2004.";" Cerrado los lunes ";"";" Metro: Sevilla (Línea 2)  Bus: 3, 5, 9, 15, 20, 51, 52, 52, 150 ";"  Venta de entradas:    Taquilla: de 11:30 a 14 horas y desde una hora antes de la función hasta inicio de la última  Por teléfono: 902 400 222 / 902 488 488  Por Internet:  www.elcorteingles.es     www.entradas.com   ";"0";"http://www.madrid.es/vgn-ext-templating/v/index.jsp?vgnextchannel=9e4c43db40317010VgnVCM100000dc0ca8c0RCRD&vgnextoid=a52b8c7c0f91f010VgnVCM1000000b205a0aRCRD";"ALCALA";"CALLE";"V";"20";"";"";"";"";"MADRID";"MADRID";"28014";"CORTES";"CENTRO";"440803";"4474572";"40.41779031089826";"-3.6990654961789105";"915 320 616 (Taquilla)";"";"alcazar@teatroalcazar.com";"/contenido/entidadesYorganismos/Teatros"; 
17334;"Teatro Compac Gran Vía (Pequeño teatro Gran Vía)";"";" Sábados a las 17 horas. Domingos a las 12 horas. ";"Acceso para minusválidos";" Metro: Plaza de España (líneas 3 y 10), Santo Domingo (línea 2), Callo (línea 5)  Bus: 1, 2, 3, 44, 46, 74, 75, 133, 143 ";"  Venta anticipada de localidades    Taquilla  Ticketmaster  El Corte Inglés.   Telefónicamente en el: 902 262 726  Tel-reservas grupos: 91 701 02 30  ";"0";"http://www.madrid.es/vgn-ext-templating/v/index.jsp?vgnextchannel=9e4c43db40317010VgnVCM100000dc0ca8c0RCRD&vgnextoid=e69b8c7c0f91f010VgnVCM1000000b205a0aRCRD";"GRAN VIA";"CALLE";"V";"66";"";"";"";"";"MADRID";"MADRID";"28013";"UNIVERSIDAD";"CENTRO";"439974";"4475084";"40.42234314774917";"-3.708884821622972";"915 415 569";"";"";"/contenido/entidadesYorganismos/Teatros"; 
6109165;"Teatro de Cámara Cervantes";" Nace en el 2008 impulsado por la Sociedad Cervantina con la intención de recueprar para el público de hoy obras teatrales de uno de los mejores autores de la lengua española, Miguel de Cervantes.  También quiere ser un espacio de investigación escénica desde donde apoyar a los jóvenes talentos del teatro español. ";"";"";" Metro: Antón Martín (línea 1)  Bus: 6, 26, 32 ";"";"0";"http://www.madrid.es/vgn-ext-templating/v/index.jsp?vgnextchannel=9e4c43db40317010VgnVCM100000dc0ca8c0RCRD&vgnextoid=313a5411a9c90310VgnVCM2000000c205a0aRCRD";"ATOCHA";"CALLE";"V";"87";"";"";"";"";"MADRID";"MADRID";"28012";"CORTES";"CENTRO";"440974";"4473859";"40.41137942819415";"-3.6969837415117817";"914 203 437 / 691 151 371";"";"soniasebastian@tccervantes.com - produccion@tccervantes.com";"/contenido/entidadesYorganismos/Teatros"; 
2207;"Teatro de la Abadía";"La antigua capilla de un internado acoge desde 1995 este teatro con vocación artística y centro de estudios y creación estética. Su programación integra montajes de producción propia con propuestas de otras compañías afines.";" Cerrado los lunes ";" Espacio Ambigú con tienda y sillones ";" Metro: Quevedo (Línea 2), Canal (Líneas 2, 7)  Bus: 2, 16, 37, 61, 202 ";" Venta de entradas:   Taquillas, de martes a sábados de 17 a 21 horas. Domingos de 17 a 20 horas  Por teléfono: 902 101 212  Internet:  www.telentrada.com   ";"1";"http://www.madrid.es/vgn-ext-templating/v/index.jsp?vgnextchannel=9e4c43db40317010VgnVCM100000dc0ca8c0RCRD&vgnextoid=efcb8c7c0f91f010VgnVCM1000000b205a0aRCRD";"FERNANDEZ DE LOS RIOS";"CALLE";"V";"42";"";"";"";"";"MADRID";"MADRID";"28015";"ARAPILES";"CHAMBERI";"439957";"4476513";"40.43521498257272";"-3.709220421464494";"914 481 181";"";"abadia@teatroabadia.com";"/contenido/entidadesYorganismos/Teatros"; 
2193;"Teatro de la Comedia. Compañía Nacional de Teatro Clásico (Cerrado por obras)";"";"TAQUILLA: De Lunes a Domingos de 11,30 a 13,30 y de 17 a 18 horas ";"Acceso para minusválidos sólo a patio de butacas";" Metro: Sevilla Bus: 3 , 5 , 6 , 9 , 15 , 20 , 26 , 32 , 51 , 52 , 53 , 57 , 65 , 150 ";"";"0";"http://www.madrid.es/vgn-ext-templating/v/index.jsp?vgnextchannel=9e4c43db40317010VgnVCM100000dc0ca8c0RCRD&vgnextoid=e2eb8c7c0f91f010VgnVCM1000000b205a0aRCRD";"PRINCIPE";"CALLE";"V";"14";"";"";"";"";"MADRID";"MADRID";"28012";"CORTES";"CENTRO";"440687";"4474329";"40.41559297578305";"-3.7004100176490162";"91 521 49 31 &#13;
91 521 45 33 / 91 522 46 90 (Reservas grupos)";"";"teatro.clasico@inaem.mcu.es";"/contenido/entidadesYorganismos/Teatros"; 
2194;"Teatro de la Zarzuela";"Construido por Jerónimo de la Gándara en 1856, siguiendo el último clasicismo de tendencia neoitaliana. En la dirección de la obra le sustituyó José María Guallart y Sánchez. En la fachada destacan los medallones con retratos de músicos, de estilo isabelino y en el interior la pintura del techo, obra de Manuel Castellanos.";"  Taquilla    De lunes a viernes de 12 a 18 horas  Sábados y domingos consultar telefónicamente  ";"Bar, guardarropa, tienda.";" Metro: Banco de España (línea 2), Sevilla (línea 2)  Bus: 5, 9, 10, 14, 15, 20, 27, 34, 37, 45, 51, 53, 150 ";"  Venta de localidades     Teléfono:  902 224 949   Internet:   http://www.entradasinaem.es    ";"1";"http://www.madrid.es/vgn-ext-templating/v/index.jsp?vgnextchannel=9e4c43db40317010VgnVCM100000dc0ca8c0RCRD&vgnextoid=e5fb8c7c0f91f010VgnVCM1000000b205a0aRCRD";"JOVELLANOS";"CALLE";"V";"4";"";"";"";"";"MADRID";"MADRID";"28014";"CORTES";"CENTRO";"440989";"4474504";"40.4171909688133";"-3.6968669041846796";"910 505 282 (taquillas) / 902 224 949 (venta telefónica)";"";"";"/contenido/entidadesYorganismos/Teatros"; 
6708522;"Teatro del Arte";"";"";"";" Metro: Lavapies (Línea 1), Antón Martín (Línea 1)  Bus: 6, 26, 32 ";"";"0";"http://www.madrid.es/vgn-ext-templating/v/index.jsp?vgnextchannel=9e4c43db40317010VgnVCM100000dc0ca8c0RCRD&vgnextoid=c79d84f59999b310VgnVCM1000000b205a0aRCRD";"SAN COSME Y SAN DAMIAN";"CALLE";"V";"3";"";"";"";"";"MADRID";"MADRID";"28012";"EMBAJADORES";"CENTRO";"440885";"4473636";"40.40936420663715";"-3.6980118755280533";"917 022 607";"";"";"/contenido/entidadesYorganismos/Teatros"; 
7239548;"Teatro del Barrio";"Sala de teatro alternativo";"";"";" Metro: Lavapiés (línea 3), Antón Martín (línea 1)  Bus: 26, 32 ";"";"0";"http://www.madrid.es/vgn-ext-templating/v/index.jsp?vgnextchannel=9e4c43db40317010VgnVCM100000dc0ca8c0RCRD&vgnextoid=8891c0a221f23410VgnVCM1000000b205a0aRCRD";"ZURITA";"CALLE";"V";"20";"";"";"";"";"MADRID";"MADRID";"28012";"EMBAJADORES";"CENTRO";"440791";"4473671";"40.40967281072633";"-3.699122921978145";"910 299 332";"";"";"/contenido/entidadesYorganismos/Teatros"; 
2190;"Teatro Español";" Denominado, hasta 1849, Teatro del Principe ampliamente reformado en los últimos años del siglo XIX.   Es uno de los teatros madrileños mas emblemáticos, con una trayectoria, casi ininterrumpida, de programación durante mas de 400 años ";"";"  Servicio de bar   Venta de publicaciones del Teatro Español abierto media hora antes de la función.   Salas   Principal: sala por la que el Teatro Español existe, antiguo corral de comedias, lleva 400 años en activo.  Pequeña: espacio inaugurado en 2005.   Sala de exposiciones: polivalente, utilizada para conferencias, salas de prensa, etc.  Salón de té: se utiliza para la convocatoria de ruedas de prensa    ";" Metro: Sol (líneas 1, 2, 3), Antón Martín (línea 2)  Bus: 6, 26, 32, 57, 65, 15, 150, 3, 5, 9, 20, 51, 52, 53 ";"  Venta de localidades para el mismo día    Mañanas: de 11:30 a 13:30 horas.  Tardes: de 17 horas hasta el comienzo de la función.  Lunes cerrado.    Venta anticipada     En taquilla: d e martes a sábado de 11:30 a 13:30 horas y de 17 a 19 horas. Domingo de 17 a 18 horas.   Por teléfono  sólo en Tel-entrada (24 horas) 902 10 12 12   En sucursales de Caixa Catalunya    Por Internet:   http://www.telentrada.com/     Precios reducidos para grupos, consultar en taquilla.    Entrega de correo postal por el lateral del teatro:  por la calle Manuel Fernández y González, 4. ";"1";"http://www.madrid.es/vgn-ext-templating/v/index.jsp?vgnextchannel=9e4c43db40317010VgnVCM100000dc0ca8c0RCRD&vgnextoid=6d3ce3914381c010VgnVCM1000000b205a0aRCRD";"PRINCIPE";"CALLE";"V";"25";"";"";"";"";"MADRID";"MADRID";"28012";"CORTES";"CENTRO";"440706";"4474243";"40.41481960283931";"-3.700178052458009";"913 601 480 (Centralita) /            
913 601 484 (Taquilla)";"";"";"/contenido/entidadesYorganismos/Teatros"; 
99247;"Teatro Estudio Liberarte";"";"";"";" Metro: Valdeacederas (Línea 1), Ventilla (Línea 9)  Bus: 49, 66, 124 ";"";"0";"http://www.madrid.es/vgn-ext-templating/v/index.jsp?vgnextchannel=9e4c43db40317010VgnVCM100000dc0ca8c0RCRD&vgnextoid=b6dc8c7c0f91f010VgnVCM1000000b205a0aRCRD";"FRANCISCA CONDE";"CALLE";"V";"7";"";"";"";"";"MADRID";"MADRID";"28029";"VALDEACEDERAS";"TETUAN";"440802";"4480159";"40.46812038764409";"-3.699598892352025";"917 330 029";"";"";"/contenido/entidadesYorganismos/Teatros"; 
2181;"Teatro Fígaro - Adolfo Marsillach";"Situado en la zona céntrica y turística de Madrid, acoge lo mejor de la comedia actual internacional";"Cerrado los lunes";"";" Metro: Tirso de Molina (Línea 1), Sol (Líneas 1, 2 y 3)  Bus: 6, 26, 32, 50, 65 ";"  Venta anticipada:     Taquilla  Por teléfono: 902 400 222 / 902 488 488  Por internet:  www.elcorteingles.es  ,  www.entradas.com  ,  www.atrapalo.com   ";"1";"http://www.madrid.es/vgn-ext-templating/v/index.jsp?vgnextchannel=9e4c43db40317010VgnVCM100000dc0ca8c0RCRD&vgnextoid=715c8c7c0f91f010VgnVCM1000000b205a0aRCRD";"DOCTOR CORTEZO";"CALLE";"V";"5";"";"";"";"";"MADRID";"MADRID";"28012";"EMBAJADORES";"CENTRO";"440407";"4474093";"40.413446936504705";"-3.703687951851498";"913 600 829 ";"";"";"/contenido/entidadesYorganismos/Teatros"; 
87056;"Teatro Galileo";"";"";"Comparte edificio con el Centro Cultural Galileo pero hay dos entradas, una interna por el Centro Cultural y otra por la calle Galileo";" Metro: Quevedo (Línea 2)  Bus: 2, 16, 21 , 61 ";"  Venta de entradas:    Taquilla: una hora antes de cada función  Por teléfono, en El Corte Inglés: 902 400 222  ";"0";"http://www.madrid.es/vgn-ext-templating/v/index.jsp?vgnextchannel=9e4c43db40317010VgnVCM100000dc0ca8c0RCRD&vgnextoid=346c8c7c0f91f010VgnVCM1000000b205a0aRCRD";"GALILEO";"CALLE";"V";"39";"";"";"";"";"MADRID";"MADRID";"28015";"ARAPILES";"CHAMBERI";"439851";"4476347";"40.43371190964793";"-3.7104543597957758";"914 481 646";"";"";"/contenido/entidadesYorganismos/Teatros"; 
130405;"Teatro Guindalera";"Esta sala apuesta por recuperar un teatro de arte y ensayo, punto de encuentro y de reflexión. ";"";"";" Metro: Diego de León (Líneas 4, 5, 6)  Bus: 1, 43, 74 ";"";"0";"http://www.madrid.es/vgn-ext-templating/v/index.jsp?vgnextchannel=9e4c43db40317010VgnVCM100000dc0ca8c0RCRD&vgnextoid=db408c89dd91f010VgnVCM2000000c205a0aRCRD";"MARTINEZ IZQUIERDO";"CALLE";"V";"20";"";"";"";"";"MADRID";"MADRID";"28028";"GUINDALERA";"SALAMANCA";"443311";"4476285";"40.43339686680235";"-3.6696580993972807";"913 615 521";"";"info@teatroguindalera.com";"/contenido/entidadesYorganismos/Teatros"; 
2198;"Teatro Infanta Isabel";"";"";"";" Metro: Banco de España (Línea 2)  Bus: 3, 5, 14, 37, 45, 53, 149, 150 ";"  Venta de entradas:    Taquilla: martes de 17 a 20 horas. De miércoles a domingo de 12 a 14 horas y de 17 hasta el comienzo de la función.  Por teléfono: 902 400 222 / 902 488 488  Internet:  www.elcorteingles.es  /  www.entradas.com   ";"0";"http://www.madrid.es/vgn-ext-templating/v/index.jsp?vgnextchannel=9e4c43db40317010VgnVCM100000dc0ca8c0RCRD&vgnextoid=777c8c7c0f91f010VgnVCM1000000b205a0aRCRD";"BARQUILLO";"CALLE";"V";"24";"";"";"";"";"MADRID";"MADRID";"28004";"JUSTICIA";"CENTRO";"441102";"4475061";"40.42221671356561";"-3.6955867306586354";"915 210 212";"";"";"/contenido/entidadesYorganismos/Teatros"; 
2182;"Teatro la Latina";"Es uno de los proyectos de la productora Miramón Mendi para la promoción y difusión de géneros tradicionales como el teatro, la ópera y la zarzuela.";"";"";" Metro: La Latina (Línea 5)  Bus: 6, 17, 18, 50, 51 ";"  Venta de entradas:    Taquilla: de 11 a 13 horas y desde las 18 horas.  Por teléfono: 902 488 488  Cajeros de Bankia e Ibercaja  Internet:  www.entradas.com   ";"0";"http://www.madrid.es/vgn-ext-templating/v/index.jsp?vgnextchannel=9e4c43db40317010VgnVCM100000dc0ca8c0RCRD&vgnextoid=7d9c8c7c0f91f010VgnVCM1000000b205a0aRCRD";"CEBADA";"PLAZA";"V";"2";"";"";"";"";"MADRID";"MADRID";"28005";"PALACIO";"CENTRO";"439973";"4473869";"40.411397795053";"-3.708781739576842";"913 652 835";"";"";"/contenido/entidadesYorganismos/Teatros"; 
79864;"Teatro Lagrada";" Espacio en el que se presentan los últimos trabajos de autores y compañías de teatro, música y danza. ";"";"";" Metro: Embajadores (Líneas 3, 5)  Bus: 27, 34, 36, 47, 55, 60, 78, 116, 119, 148   Renfe: Embajadores ";"  Ventas de entrada:    Taquilla  Por teléfono: 915 179 698  Por internet:  www.atrapalo.com   ";"0";"http://www.madrid.es/vgn-ext-templating/v/index.jsp?vgnextchannel=9e4c43db40317010VgnVCM100000dc0ca8c0RCRD&vgnextoid=70bc8c7c0f91f010VgnVCM1000000b205a0aRCRD";"ERCILLA";"CALLE";"V";"20";"";"";"";"";"MADRID";"MADRID";"28005";"ACACIAS";"ARGANZUELA";"440465";"4472898";"40.40268595360097";"-3.70289238039068";"915 179 698";"";"lagrada@teatrolagrada.com";"/contenido/entidadesYorganismos/Teatros"; 
2208;"Teatro Lara";"Espacio plural que da cabida a la música, la poesía o cualquier expresión artística. Construido en 1879 e inaugurado el 3 de septiembre un año después. Uno de los teatros más llamativos de la Comunidad de Madrid desde el punto de vista arquitectónico.";" Cerrado los lunes ";"";" Metro: Callao (Líneas 3, 5)  Bus: 44, 75, 133, 146 ";"  Venta de entradas:    Taquilla  Por teléfono: 902 221 622  Internet:  www.entradas.com   ";"0";"http://www.madrid.es/vgn-ext-templating/v/index.jsp?vgnextchannel=9e4c43db40317010VgnVCM100000dc0ca8c0RCRD&vgnextoid=73cc8c7c0f91f010VgnVCM1000000b205a0aRCRD";"CORREDERA BAJA DE SAN PABLO";"CALLE";"V";"15";"";"";"";"";"MADRID";"MADRID";"28004";"UNIVERSIDAD";"CENTRO";"440350";"4475052";"40.42208196713365";"-3.7044498348290293";"915 239 027";"";"";"/contenido/entidadesYorganismos/Teatros"; 
17338;"Teatro Lope de Vega";"Fue inaugurado en 1946 con una revista musical,  posteriormente se transformó y funcionó durante años como cine. En 1997 lidera la conversión de la Gran Vía en un Broadway madrileño especializándose en la programación de obras fundamentales del género.";"";"Cafetería";" Metro: Santo Domingo (Línea 2), Plaza de España (Líneas 10, 13), Callao (Líneas 3 , 5)  Bus: 1, 2, 3, 25, 33, 39, 40, 41, 44, 46, 74, 75, 133, 138, 146, 147, 148, 149, 202 ";"";"1";"http://www.madrid.es/vgn-ext-templating/v/index.jsp?vgnextchannel=9e4c43db40317010VgnVCM100000dc0ca8c0RCRD&vgnextoid=79ec8c7c0f91f010VgnVCM1000000b205a0aRCRD";"GRAN VIA";"CALLE";"V";"57";"";"";"";"";"MADRID";"MADRID";"28013";"PALACIO";"CENTRO";"439974";"4475034";"40.42189272510087";"-3.7088800933302783";"915 238 283";"";"teatros@stage.es";"/contenido/entidadesYorganismos/Teatros"; 
174142;"Teatro Maravillas";"Situado en el céntrico barrio de Malasaña. Inaugurado en 1886, vuelve a abrir sus puertas en el 2005, tras cinco años de obras";"";"";" Metro: Bilbao (Líneas 1, 4)  Bus: 3, 21, 40, 147, 149 ";"  Venta de entradas:    Taquilla  Por teléfono: 902 488 488  Cajeros de Bankia  Internet:  www.entradas.com   ";"1";"http://www.madrid.es/vgn-ext-templating/v/index.jsp?vgnextchannel=9e4c43db40317010VgnVCM100000dc0ca8c0RCRD&vgnextoid=f8608c89dd91f010VgnVCM2000000c205a0aRCRD";"MANUELA MALASA&Ntilde;A";"CALLE";"V";"6";"";"";"";"";"MADRID";"MADRID";"28004";"UNIVERSIDAD";"CENTRO";"440470";"4475783";"40.428675760717795";"-3.703103946758172";"914 468 400 / 914 468 405";"";"info@teatromaravillas.com";"/contenido/entidadesYorganismos/Teatros"; 
2191;"Teatro María Guerrero. Centro Dramático Nacional";" Teatro, originalmente llamado de la Princesa, sede del Centro Dramático Nacional, construido entre 1884 y 1885 por el arquitecto Agustín Ortiz de Villajos y financiado por el Marqués de Monasterio, sobre un solar cuadrangular y siguiendo las tendencias del eclecticismo, llamado así por ser titular del mismo desde 1908 y durante mucho tiempo la compañía de María Guerrero. ";"  Taquilla    De lunes a viernes de 12 a 20:30 horas  Sábados, domingos y festivos de 14:30 a 20:30 horas  ";"";" Metro: Colón (línea 4), Banco de España (línea 2)  Bus: 5, 14, 27, 37, 45, 150  Renfe: Recoletos ";"  Venta de localidades    Teléfono: 902 224 949  Internet:  http://www.entradasinaem.es   ";"0";"http://www.madrid.es/vgn-ext-templating/v/index.jsp?vgnextchannel=9e4c43db40317010VgnVCM100000dc0ca8c0RCRD&vgnextoid=3cfc8c7c0f91f010VgnVCM1000000b205a0aRCRD";"TAMAYO Y BAUS";"CALLE";"V";"4";"";"";"";"";"MADRID";"MADRID";"28004";"JUSTICIA";"CENTRO";"441316";"4475132";"40.42287146483462";"-3.693070836968884";"";"";"cdn@inaem.mcu.es";"/contenido/entidadesYorganismos/Teatros"; 
2184;"Teatro Marquina";"Inaugurado en 1962. En 1996 fue derribado para levantarlo nuevamente con más adelantos. Dos años más tarde se reinauguró.";" Cerrado los lunes ";"";" Metro: Banco de España (Línea 2)  Bus: 1, 2, 3, 5, 10, 14, 15, 27, 37, 40, 45, 51, 52, 53, 74, 150  Renfe: Recoletos ";" Venta de entradas:   Taquilla  Por teléfono: 902 488 488  Cajeros de Bankia  Internet:  www.entradas.com   ";"0";"http://www.madrid.es/vgn-ext-templating/v/index.jsp?vgnextchannel=9e4c43db40317010VgnVCM100000dc0ca8c0RCRD&vgnextoid=fe0d8c7c0f91f010VgnVCM1000000b205a0aRCRD";"PRIM";"CALLE";"V";"11";"";"";"";"";"MADRID";"MADRID";"28004";"JUSTICIA";"CENTRO";"441258";"4475031";"40.42195750772574";"-3.6937451531542638";"915 328 554";"";"";"/contenido/entidadesYorganismos/Teatros"; 
2131;"Teatro Monumental";"Es el teatro donde la Orquesta y el Coro de Radio Televisión Española realiza sus actuaciones desde los años 60";"";"";" Metro: Antón Martín (Línea 1)  Bus: 6, 26, 32, 57 ";"";"1";"http://www.madrid.es/vgn-ext-templating/v/index.jsp?vgnextchannel=9e4c43db40317010VgnVCM100000dc0ca8c0RCRD&vgnextoid=96f0ff632081c010VgnVCM1000000b205a0aRCRD";"ATOCHA";"CALLE";"V";"65";"";"";"";"";"MADRID";"MADRID";"28012";"CORTES";"CENTRO";"440789";"4473983";"40.41248331678507";"-3.6991755805601443";"914 291 281";"";"";"/contenido/entidadesYorganismos/Teatros"; 
4077;"Teatro Municipal de Títeres de el Retiro al Aire Libre";"";" Consultar programación asociada ";"";" Metro: Retiro (línea 2)  Bus: 1, 2, 9, 15, 19, 20, 28, 51, 52, 74, 146 ";"";"1";"http://www.madrid.es/vgn-ext-templating/v/index.jsp?vgnextchannel=9e4c43db40317010VgnVCM100000dc0ca8c0RCRD&vgnextoid=784d8c7c0f91f010VgnVCM1000000b205a0aRCRD";"MEJICO";"AVENIDA";"V";"4";"";"";"";"";"MADRID";"MADRID";"28009";"LOS JERONIMOS";"RETIRO";"441857";"4474674";"40.41878362561595";"-3.6866519471003647";"670 723 360   / 917 924 112 (sólo mañanas) (Asociación Cultural Titirilandia)";"";"club@titirilandia.com";"/contenido/entidadesYorganismos/Teatros"; 
2185;"Teatro Muñoz Seca";"";" Cerrado los lunes ";"";" Metro: Sol (Líneas 1, 2, 3), Gran Vía (Líneas 1, 5)  Bus: 1 , 2 , 3 , 15 , 20 , 46 , 51 , 52 , 53 , 74 , 146 , 150 ";"  Venta de entradas:    Taquilla: de 11:30 a 13:30 horas y de 17:30 horas en adelante.   Por teléfono: 915 232 128  Cajeros de Bankia  Internet:  www.entradas.com   ";"0";"http://www.madrid.es/vgn-ext-templating/v/index.jsp?vgnextchannel=9e4c43db40317010VgnVCM100000dc0ca8c0RCRD&vgnextoid=7b5d8c7c0f91f010VgnVCM1000000b205a0aRCRD";"CARMEN";"PLAZA";"V";"1";"";"";"";"";"MADRID";"MADRID";"28013";"SOL";"CENTRO";"440446";"4474643";"40.41840439358014";"-3.7032798991593827";"915 232 128 (Información y reservas)";"";"";"/contenido/entidadesYorganismos/Teatros"; 
2186;"Teatro Nuevo Apolo";"Teatro musical por excelencia. En él se han representado grandes producciones; también tienen lugar en él espectáculos de humor y danza.";"";"";" Metro: Tirso de Molina (Línea 1)  Bus: 6, 26, 32, 65 ";" Venta de entradas:   Taquilla: todos los días excepto los lunes, de 11:30 a 13:30 horas y de 17 horas hasta el inicio de la función.  Por teléfono: 902 400 222 / 902 488 488 / 913 194 640 (grupos).  Internet:  www.elcorteingles.es  /  www.entradas.com   ";"1";"http://www.madrid.es/vgn-ext-templating/v/index.jsp?vgnextchannel=9e4c43db40317010VgnVCM100000dc0ca8c0RCRD&vgnextoid=7e6d8c7c0f91f010VgnVCM1000000b205a0aRCRD";"TIRSO DE MOLINA";"PLAZA";"V";"1";"";"";"";"";"MADRID";"MADRID";"28012";"EMBAJADORES";"CENTRO";"440433";"4473970";"40.41234075831118";"-3.703369987899476";"913 690 637";"";"";"/contenido/entidadesYorganismos/Teatros"; 
81184;"Teatro Pavón (Compañía Nacional de Teatro Clásico)";" Sede temporal de la Compañía Nacional de Teatro Clásico ";"";"Teatros de la Red del INAEM.";" Metro: Latina (línea 5)  Bus: 17, 18, 23, 35, 60 ";"  Venta de localidades    Taquillas, de lunes a viernes de 11 a 18 y sábados, domingos y festivos de 14:30 a 20 horas  Internet :   http://www.entradasinaem.es/   ";"0";"http://www.madrid.es/vgn-ext-templating/v/index.jsp?vgnextchannel=9e4c43db40317010VgnVCM100000dc0ca8c0RCRD&vgnextoid=b49d8c7c0f91f010VgnVCM1000000b205a0aRCRD";"EMBAJADORES";"CALLE";"V";"9";"";"";"";"";"MADRID";"MADRID";"28012";"EMBAJADORES";"CENTRO";"440187";"4473719";"40.410061957152784";"-3.706245565927978";"915 282 819 (taquilla)";"";"";"/contenido/entidadesYorganismos/Teatros"; 
2202;"Teatro Pradillo";"Sala independiente con programación estable de teatro infantil y de adultos";" Cerrado los lunes ";"Aparcamiento en la calle Mercenado, 34";" Metro: Concha Espina (Línea 9)  Bus: 16, 29, 52,  ";"  Venta anticipada en:    Taquilla, una hora antes de la función  Internet:  www.entradas.com .   Telefónicamente en el 902 488 488  ";"0";"http://www.madrid.es/vgn-ext-templating/v/index.jsp?vgnextchannel=9e4c43db40317010VgnVCM100000dc0ca8c0RCRD&vgnextoid=f7ad8c7c0f91f010VgnVCM1000000b205a0aRCRD";"PRADILLO";"CALLE";"V";"12";"";"";"";"";"MADRID";"MADRID";"28002";"CIUDAD JARDIN";"CHAMARTIN";"442894";"4477972";"40.44856560554628";"-3.6747261219408607";"914 169 011";"";"info@teatropradillo.com";"/contenido/entidadesYorganismos/Teatros"; 
31360;"Teatro Príncipe Gran Vía";"Espacio dedicado casi exclusivamente al teatro de la comedia";" Cerrado los lunes ";"";" Metro: Gran Vía (líneas 1, 5), Callo (líneas 3, 5)  Bus: M2 ";" Venta de entradas:   Taquilla  Por teléfono: 902 488 488  Cajeros Bankia  Internet:  www.entradas.com   ";"0";"http://www.madrid.es/vgn-ext-templating/v/index.jsp?vgnextchannel=9e4c43db40317010VgnVCM100000dc0ca8c0RCRD&vgnextoid=fabd8c7c0f91f010VgnVCM1000000b205a0aRCRD";"TRES CRUCES";"CALLE";"V";"8";"";"";"";"";"MADRID";"MADRID";"28013";"SOL";"CENTRO";"440491";"4474755";"40.41941656735497";"-3.702760005318704";"915 318 514";"";"";"/contenido/entidadesYorganismos/Teatros"; 
7089081;"Teatro Quevedo";"";" Taquillas:    De lunes a jueves de 12 a 14 horas  y  de 16 a 21 horas.  De viernes a domingo de 11 a 14 horas y de 16  a 22 horas   ";"";" Metro: Quevedo (línea 2)  Bus: 16, 61, 37, 149 ";"  Correos electrónicos:      info@teatroquevedo.com    programacion@teatroquevedo.com    entradas@teatroquevedo.com    microcine@teatroquevedo.com   ";"0";"http://www.madrid.es/vgn-ext-templating/v/index.jsp?vgnextchannel=9e4c43db40317010VgnVCM100000dc0ca8c0RCRD&vgnextoid=efa38bdc9a6e0410VgnVCM1000000b205a0aRCRD";"BRAVO MURILLO";"CALLE";"V";"18";"";"";"";"";"MADRID";"MADRID";"28015";"TRAFALGAR";"CHAMBERI";"440390";"4476553";"40.43560652525375";"-3.704119358317509";"717 131 438 / 914 457 193 (taquilla)       
        
";"";"";"/contenido/entidadesYorganismos/Teatros"; 
2187;"Teatro Reina Victoria";"";"";"";" Metro: Sol (líneas 1, 2 , 3) , Sevilla (línea 2)  Bus: 3, 50 ";"  Venta de entradas:    Taquilla: de 11:30 a 13:30 horas y de 17:30 horas en adelante.   Por teléfono: 915 232 128  Cajeros de Bankia  Internet:  http://www.entradas.com/   ";"0";"http://www.madrid.es/vgn-ext-templating/v/index.jsp?vgnextchannel=9e4c43db40317010VgnVCM100000dc0ca8c0RCRD&vgnextoid=1bfd8c7c0f91f010VgnVCM1000000b205a0aRCRD";"SAN JERONIMO";"CARRERA";"V";"24";"";"";"";"";"MADRID";"MADRID";"28014";"CORTES";"CENTRO";"440738";"4474431";"40.41651548060074";"-3.699818451104129";"913 692 288";"";"";"/contenido/entidadesYorganismos/Teatros"; 
17361;"Teatro Rialto";"";"";"";" Metro: Santo Domingo (línea 2) , Callao (líneas 3, 5), Gran Via (líneas 1, 5), Plaza de España (líneas 2, 3, 10)  Bus: 1, 2, 44, 46, 74, 75, 133, 146, 147, 148, 149 ";"  Venta de entradas:    Taquilla: lunes a domingo de 11 a 14 horas y desde las 16 horas y hasta el comienzo de la función.  Por teléfono: 902 400 222 / 902 888 788 / 902 332 2011 / 902 488 488 / 902 244 848  Internet:  www.elcorteingles.es  ;  www.topticketline.es  ;  www.servicaixa.es  ;  www.entradas.com ;  www.ticketmaster.es   ";"1";"http://www.madrid.es/vgn-ext-templating/v/index.jsp?vgnextchannel=9e4c43db40317010VgnVCM100000dc0ca8c0RCRD&vgnextoid=b12d8c7c0f91f010VgnVCM1000000b205a0aRCRD";"GRAN VIA";"CALLE";"V";"54";"";"";"";"";"MADRID";"MADRID";"28013";"UNIVERSIDAD";"CENTRO";"440109";"4474970";"40.42132592977082";"-3.7072827968903885";"915 419 166";"";"";"/contenido/entidadesYorganismos/Teatros"; 
2205;"Teatro Sala Cuarta Pared";"Centro de formación, investigación y producción teatral independiente creado en 1985 por un grupo de personas de diferentes procedencias teatrales. Hoy es un lugar de encuentro para todos los que pretenden vivir y conocer el teatro de una forma diferente.";"";"  Exhibición de espectáculos  Cursos de formación  Campañas de teatro para escolares  Escuela de teatro para niños y jóvenes  ";" Metro: Embajadores (Línea 3), Acacias (Línea 5)  Bus: 27, 34, 36, 41, 60, 78, 116, 118, 119, 148, C  Renfe: Embajadores ";"";"1";"http://www.madrid.es/vgn-ext-templating/v/index.jsp?vgnextchannel=9e4c43db40317010VgnVCM100000dc0ca8c0RCRD&vgnextoid=4c0208231f91f010VgnVCM2000000c205a0aRCRD";"ERCILLA";"CALLE";"V";"17";"";"";"";"";"MADRID";"MADRID";"28005";"ACACIAS";"ARGANZUELA";"440480";"4472908";"40.402777112937486";"-3.7027165608127723";"915 172 317 (taquilla)";"";"cuartapared@cuartapared.es";"/contenido/entidadesYorganismos/Teatros"; 
2189;"Teatro Sanpol";"Local pionero en España dedicado en exclusiva al público infantil y juvenil, con programación anual estable de septiembre a junio. Se fundó en marzo de 1982 y sirve de sede a la compañia estable: La Bicicleta, que cuenta con más de veinte años de actividad.";"";" Funciones escolares, convenios con empresas, organización, animación y preparación de eventos como fiestas, cotillones, carnavales, etc. ";" Metro: Príncipe Pío (Líneas 6, 10)  Bus: 41, 46, 75  Renfe: Príncipe Pío ";"  Venta de entradas:    Taquilla: una hora antes de comenzar la función  Por teléfono: 902 400 222  Internet:  www.elcorteingles.es   ";"0";"http://www.madrid.es/vgn-ext-templating/v/index.jsp?vgnextchannel=9e4c43db40317010VgnVCM100000dc0ca8c0RCRD&vgnextoid=331e8c7c0f91f010VgnVCM1000000b205a0aRCRD";"SAN POL DE MAR";"CALLE";"V";"1";"";"";"";"";"MADRID";"MADRID";"28008";"CASA DE CAMPO";"MONCLOA-ARAVACA";"438473";"4475274";"40.4239449097705";"-3.7265957347882104";"915 419 089";"";"teatro@teatrosanpol.com";"/contenido/entidadesYorganismos/Teatros"; 
135051;"Teatro Tribueñe";"";"";"";" Metro: Ventas (línea 2, 5)  Bus: 12 ";"";"0";"http://www.madrid.es/vgn-ext-templating/v/index.jsp?vgnextchannel=9e4c43db40317010VgnVCM100000dc0ca8c0RCRD&vgnextoid=96df2189cb81c010VgnVCM1000000b205a0aRCRD";"SANCHO DAVILA";"CALLE";"V";"31";"";"";"";"";"MADRID";"MADRID";"28028";"FUENTE DEL BERRO";"SALAMANCA";"443988";"4475411";"40.425569368259886";"-3.6615996399032054";"912 427 727 ";"";"info@salatribuene.com";"/contenido/entidadesYorganismos/Teatros"; 
173052;"Teatro Valle Inclán. Centro Drámatico Nacional";"";"  Taquillas    De lunes a viernes de 12 horas a 20:30 horas  Sábados, domingos y festivos de 14:30 a 30:30 horas  ";"";"Metro: Lavapiés (línea 3)";"  Venta de localidades    Teléfono: 902 224 949  Internet:  http://www.entradasinaem.es      ";"0";"http://www.madrid.es/vgn-ext-templating/v/index.jsp?vgnextchannel=9e4c43db40317010VgnVCM100000dc0ca8c0RCRD&vgnextoid=67c08c89dd91f010VgnVCM2000000c205a0aRCRD";"LAVAPIES";"PLAZA";"V";"S/N";"";"";"";"";"MADRID";"MADRID";"28012";"EMBAJADORES";"CENTRO";"440608";"4473609";"40.40910122369336";"-3.701273776079036";"915 058 801 (información taquillas y grupos)";"";"";"/contenido/entidadesYorganismos/Teatros"; 
174525;"Teatro Victoria";"Ofrece una cuidada selección de obras de teatro, comedias, monólogos, musicales y teatro infantil. Pretende rescatar obras clásicas intentando aportar en ellas las nuevas técnicas y aportaciones artísticas que ofrece la modernidad";"";"";" Metro: Noviciado (líneas 2, 3, 10)  Bus: 147 ";" Venta de entradas:   Taquilla  Por teléfono: 902 488 488  Internet:  www.entradas.com   ";"0";"http://www.madrid.es/vgn-ext-templating/v/index.jsp?vgnextchannel=9e4c43db40317010VgnVCM100000dc0ca8c0RCRD&vgnextoid=cbe08c89dd91f010VgnVCM2000000c205a0aRCRD";"PIZARRO";"CALLE";"V";"19";"";"";"";"";"MADRID";"MADRID";"28004";"UNIVERSIDAD";"CENTRO";"440251";"4475216";"40.423552238050114";"-3.7056321991333028";"915 228 730 ";"";"info@teatrovictoria.net";"/contenido/entidadesYorganismos/Teatros"; 
187464;"Teatro. ArtEspacio Plot Point";"  Sala alternativa  cuyos tamaño y versatilidad permite hacer espectáculos de pequeño formato variando la relación con el público conforme la propuesta dramática de la compañía. ";"";"Cursos de interpretación, guión, creación de personajes, dirección de actores, danza del vientre, cine: Videobooks a actores y profesionales. Castings para terceros por encargo";" Metro: Embajadores (Línea 3), Acacias (Línea 5)  Bus: 34, 36, 55, 60, 78, 116, 118, 119, 148 ";"";"0";"http://www.madrid.es/vgn-ext-templating/v/index.jsp?vgnextchannel=9e4c43db40317010VgnVCM100000dc0ca8c0RCRD&vgnextoid=ea2dd2bec675e010VgnVCM1000000b205a0aRCRD";"ERCILLA";"CALLE";"V";"29";"";"";"";"";"MADRID";"MADRID";"28005";"ACACIAS";"ARGANZUELA";"440536";"4472813";"40.40192531437177";"-3.7020477784084793";"914 749 765";"";"";"/contenido/entidadesYorganismos/Teatros"; 
168506;"Teatro. La Plaza de las Artes";"";"";"";"METRO: Embajadores &#13;BUS: 41 , 60 , 148 , C &#13;RENFE: Embajadores";"";"0";"http://www.madrid.es/vgn-ext-templating/v/index.jsp?vgnextchannel=9e4c43db40317010VgnVCM100000dc0ca8c0RCRD&vgnextoid=8b8de3914381c010VgnVCM1000000b205a0aRCRD";"PEÑA DE FRANCIA";"CALLE";"NUM";"13";"";"";"";"";"MADRID";"MADRID";"28005";"EMBAJADORES";"CENTRO";"440204";"4473392";"40.40711740791161";"-3.706014436418976";"91 530 81 59 (Oficina)";"";"laplaza@laplazadelasartes.com";"/contenido/entidadesYorganismos/Teatros"; 
5000655;"Teatros del Canal";"";"  Taquillas  (Calle Cea Bermúdez, 1): de 14:30 h a 21 horas., todos los días. La taquilla estará cerrada del 6 de julio al 5 de agosto (inclusive). ";"  Espacios escénicos:  los Teatros del Canal acogen dos grandes teatros abiertos al público, la Sala Roja y la Sala Verde, que, desde su apertura en febrero de 2009, mantienen una ocupación media del 70% y han recibido a más de 600.000 espectadores, más de 1.500 representaciones y  331 montajes. Además, los Teatros disponen de una Sala Negra o de Ensayos, de uso interno, cuyo escenario reproduce las dimensiones de la Sala Roja.    Sala Roja     Aforo: 863 localidades (platea, 595; anfiteatro, 248 y palcos, 20)  Aforo con foso de orquesta: 799 localidades     Sala Verde     Aforo máximo: 777 localidades   Configuración clásica: 441 localidades   Configuración con público en laterales de escenario: 605 localidades  Configuración con público en 4 lados del escenario: 777 localidades     Sala Negra     Superficie escenario: 22 x 8 metros  Aforo: 180 localidades    Centro Danza Canal:  es un  espacio artístico dedicado a la creación y difusión de la danza en todas sus variedades, lenguajes y estilos. Entre sus objetivos principales, se encuentra el de apoyar a las compañías de danza, dinamizando su actividad y ofreciendo el entorno de trabajo más apropiado a sus profesionales. ";" Metro: Canal (líneas 2, 7)  Bus: 3, 12, 37, 149 ";" Venta anticipada de localidades   El precio de las entradas es el mismo tanto en taquilla como en el resto de plataformas.    Internet: a  través de cada uno de los espectáculos en la web, seleccionando el botón rojo que indica Comprar.  http://www.teatroscanal.com/  También hay entradas disponibles a través de la página de entradas.ibercaja.es. Las compras con Tarjeta Ibercaja estarán exentas de gastos de distribución.   Taquillas de los Teatros del Canal:  en horario de 14:30  a 21 horas. (La taquilla permanecerá cerrada entre el 7 de julio y el 6 de agosto). Descuentos habituales: mayores de 65 años, jóvenes con Carné Joven (en ambos casos es imprescindible la acreditación) y grupos. Teléfonos de información y reserva de grupos: (+34) 91 308 99 99.  Consultar en taquilla otros posibles descuentos.   Atención Tarjeta Regalo Canal (TRC): (+34) 91 308 99 56 / 58 (de 10:15  a 14.30 horas)  correo electrónico:teatroscanal@teatroscanal.comtradas     Cajeros Ibercaja:  las localidades también pueden adquirirse en la red de cajeros Ibercaja. Para resolver cualquier duda, el teléfono de información es 976 201 072, y para llamadas desde el extranjero el teléfono es: (+34)  976 201 072.  ";"1";"http://www.madrid.es/vgn-ext-templating/v/index.jsp?vgnextchannel=9e4c43db40317010VgnVCM100000dc0ca8c0RCRD&vgnextoid=8f63986ba58bc110VgnVCM1000000b205a0aRCRD";"CEA BERMUDEZ";"CALLE";"V";"1";"";"";"";"";"MADRID";"MADRID";"28003";"ARAPILES";"CHAMBERI";"440312";"4476879";"40.438519654203546";"-3.7050694291186463";"913 089 999  / 913 089 950           
           
";"";"teatroscanal@teatroscanal.com";"/contenido/entidadesYorganismos/Teatros"; 

